0 COSMOS 886 DEB
1 09956U 76126AW  13282.05689544  .00000120  00000-0  30597-3 0  3701
2 09956 065.7945 298.9302 0934784 282.5491 067.2712 12.35904219658264
0 COSMOS 886 DEB
1 09956U 76126AW  13284.40354589  .00000128  00000-0  31880-3 0  3715
2 09956 065.7974 294.3083 0935705 281.7996 067.9640 12.35905254658545
0 COSMOS 886 DEB
1 09956U 76126AW  13286.42652085  .00000093  00000-0  25860-3 0  3724
2 09956 065.7978 290.3355 0935772 281.0295 068.6961 12.35906181658797
0 COSMOS 886 DEB
1 09956U 76126AW  13291.36257593  .00000109  00000-0  28533-3 0  3737
2 09956 065.7988 280.6420 0935630 279.1574 070.4865 12.35908442659409
0 COSMOS 886 DEB
1 09956U 76126AW  13293.95197891  .00000147  00000-0  35147-3 0  3740
2 09956 065.7985 275.5573 0935612 278.1718 071.4328 12.35909454659721
